MALLIGYONG-1            
1 58400U 23179A   24151.22926831  .00006366  00000+0  27516-3 0  9999
2 58400  97.4058  38.3678 0008044 335.9884  24.0976 15.22792944 28994
